{
  "norad_id": 66483,
  "name": "STARLINK-35654",
  "history": [
    {
      "epoch": "2026-03-28T16:18:34.378848",
      "apogee_km": 483.92383012763185,
      "perigee_km": 482.01507031318124,
      "latitude_deg": 1.3940098261403517,
      "longitude_deg": 173.53819872019812,
      "semi_major_axis_km": 6861.106450220406,
      "eccentricity": 0.0001391,
      "inclination_deg": 43.0031,
      "raan_deg": 188.6617,
      "arg_perigee_deg": 272.4756,
      "mean_anomaly_deg": 87.5936,
      "mean_motion_rev_day": 15.27606599
    }
  ]
}